{
  "type": "FeatureCollection",
  "features": [
    {
      "type": "Feature",
      "properties": {
        "norad_id": 29904,
        "name": "FENGYUN 1C DEB",
        "group": "fengyun-1c-debris",
        "lat": 49.02887543727529,
        "lon": 22.41865865257254,
        "alt_km": 798.4424558491937,
        "timestamp": "2025-12-20T14:38:02.242053+00:00",
        "meta_object_name": "FENGYUN 1C DEB",
        "meta_object_id": "1999-025HA",
        "meta_epoch": "2025-12-19T08:28:51.127392",
        "meta_mean_motion": 14.44503422,
        "meta_eccentricity": 0.0207529,
        "meta_inclination": 99.0411,
        "meta_ra_of_asc_node": 31.6474,
        "meta_arg_of_pericenter": 298.9456,
        "meta_mean_anomaly": 59.1063,
        "meta_ephemeris_type": 0,
        "meta_classification_type": "U",
        "meta_norad_cat_id": 29904,
        "meta_element_set_no": 999,
        "meta_rev_at_epoch": 99159,
        "meta_bstar": 0.00031146,
        "meta_mean_motion_dot": 1.337e-05,
        "meta_mean_motion_ddot": 0,
        "tle_line1": "1 29904U 99025HA  25353.35336953  .00001337  00000+0  31146-3 0  9995",
        "tle_line2": "2 29904  99.0411  31.6474 0207529 298.9456  59.1063 14.44503422991599"
      },
      "geometry": {
        "type": "Point",
        "coordinates": [
          22.41865865257254,
          49.02887543727529
        ]
      }
    },
    {
      "type": "Feature",
      "properties": {
        "norad_id": 29906,
        "name": "FENGYUN 1C DEB",
        "group": "fengyun-1c-debris",
        "lat": 68.80777870264592,
        "lon": -58.50712951573421,
        "alt_km": 694.7922151286621,
        "timestamp": "2025-12-20T14:38:02.242063+00:00",
        "meta_object_name": "FENGYUN 1C DEB",
        "meta_object_id": "1999-025HC",
        "meta_epoch": "2025-12-20T05:51:01.021248",
        "meta_mean_motion": 14.49757032,
        "meta_eccentricity": 0.00366275,
        "meta_inclination": 98.7066,
        "meta_ra_of_asc_node": 97.8344,
        "meta_arg_of_pericenter": 127.2425,
        "meta_mean_anomaly": 233.2119,
        "meta_ephemeris_type": 0,
        "meta_classification_type": "U",
        "meta_norad_cat_id": 29906,
        "meta_element_set_no": 999,
        "meta_rev_at_epoch": 98266,
        "meta_bstar": 0.0014481175,
        "meta_mean_motion_dot": 5.582e-05,
        "meta_mean_motion_ddot": 0,
        "tle_line1": "1 29906U 99025HC  25354.24376182  .00005582  00000+0  14481-2 0  9992",
        "tle_line2": "2 29906  98.7066  97.8344 0036627 127.2425 233.2119 14.49757032982660"
      },
      "geometry": {
        "type": "Point",
        "coordinates": [
          -58.50712951573421,
          68.80777870264592
        ]
      }
    },
    {
      "type": "Feature",
      "properties": {
        "norad_id": 29907,
        "name": "FENGYUN 1C DEB",
        "group": "fengyun-1c-debris",
        "lat": -76.05433615550908,
        "lon": -158.8538345618042,
        "alt_km": 808.8344082572994,
        "timestamp": "2025-12-20T14:38:02.242074+00:00",
        "meta_object_name": "FENGYUN 1C DEB",
        "meta_object_id": "1999-025HD",
        "meta_epoch": "2025-12-20T03:20:41.280288",
        "meta_mean_motion": 14.11673675,
        "meta_eccentricity": 0.00845321,
        "meta_inclination": 99.1113,
        "meta_ra_of_asc_node": 60.9282,
        "meta_arg_of_pericenter": 228.8824,
        "meta_mean_anomaly": 160.8159,
        "meta_ephemeris_type": 0,
        "meta_classification_type": "U",
        "meta_norad_cat_id": 29907,
        "meta_element_set_no": 999,
        "meta_rev_at_epoch": 96703,
        "meta_bstar": 0.0013083133,
        "meta_mean_motion_dot": 2.416e-05,
        "meta_mean_motion_ddot": 0,
        "tle_line1": "1 29907U 99025HD  25354.13936667  .00002416  00000+0  13083-2 0  9991",
        "tle_line2": "2 29907  99.1113  60.9282 0084532 228.8824 160.8159 14.11673675967032"
      },
      "geometry": {
        "type": "Point",
        "coordinates": [
          -158.8538345618042,
          -76.05433615550908
        ]
      }
    },
    {
      "type": "Feature",
      "properties": {
        "norad_id": 29909,
        "name": "FENGYUN 1C DEB",
        "group": "fengyun-1c-debris",
        "lat": -19.539202963628476,
        "lon": 101.76494164321659,
        "alt_km": 687.0862997344111,
        "timestamp": "2025-12-20T14:38:02.242084+00:00",
        "meta_object_name": "FENGYUN 1C DEB",
        "meta_object_id": "1999-025HF",
        "meta_epoch": "2025-12-19T05:51:27.241056",
        "meta_mean_motion": 14.55224659,
        "meta_eccentricity": 0.0038142,
        "meta_inclination": 98.6352,
        "meta_ra_of_asc_node": 97.2626,
        "meta_arg_of_pericenter": 354.6234,
        "meta_mean_anomaly": 35.3798,
        "meta_ephemeris_type": 0,
        "meta_classification_type": "U",
        "meta_norad_cat_id": 29909,
        "meta_element_set_no": 999,
        "meta_rev_at_epoch": 98500,
        "meta_bstar": 0.0013695,
        "meta_mean_motion_dot": 5.937e-05,
        "meta_mean_motion_ddot": 0,
        "tle_line1": "1 29909U 99025HF  25353.24406529  .00005937  00000+0  13695-2 0  9993",
        "tle_line2": "2 29909  98.6352  97.2626 0038142 354.6234  35.3798 14.55224659985001"
      },
      "geometry": {
        "type": "Point",
        "coordinates": [
          101.76494164321659,
          -19.539202963628476
        ]
      }
    },
    {
      "type": "Feature",
      "properties": {
        "norad_id": 29911,
        "name": "FENGYUN 1C DEB",
        "group": "fengyun-1c-debris",
        "lat": 1.34646631204922,
        "lon": -142.20540590331646,
        "alt_km": 818.9902575092065,
        "timestamp": "2025-12-20T14:38:02.242094+00:00",
        "meta_object_name": "FENGYUN 1C DEB",
        "meta_object_id": "1999-025HH",
        "meta_epoch": "2025-12-20T02:12:21.975264",
        "meta_mean_motion": 14.18874825,
        "meta_eccentricity": 0.00274249,
        "meta_inclination": 98.7149,
        "meta_ra_of_asc_node": 37.0791,
        "meta_arg_of_pericenter": 130.6286,
        "meta_mean_anomaly": 284.1062,
        "meta_ephemeris_type": 0,
        "meta_classification_type": "U",
        "meta_norad_cat_id": 29911,
        "meta_element_set_no": 999,
        "meta_rev_at_epoch": 97535,
        "meta_bstar": 0.00053170382,
        "meta_mean_motion_dot": 1.068e-05,
        "meta_mean_motion_ddot": 0,
        "tle_line1": "1 29911U 99025HH  25354.09192101  .00001068  00000+0  53170-3 0  9992",
        "tle_line2": "2 29911  98.7149  37.0791 0027424 130.6286 284.1062 14.18874825975354"
      },
      "geometry": {
        "type": "Point",
        "coordinates": [
          -142.20540590331646,
          1.34646631204922
        ]
      }
    },
    {
      "type": "Feature",
      "properties": {
        "norad_id": 29912,
        "name": "FENGYUN 1C DEB",
        "group": "fengyun-1c-debris",
        "lat": 77.20169179032628,
        "lon": -45.1205128136966,
        "alt_km": 744.5758481653884,
        "timestamp": "2025-12-20T14:38:02.242104+00:00",
        "meta_object_name": "FENGYUN 1C DEB",
        "meta_object_id": "1999-025HJ",
        "meta_epoch": "2025-12-20T05:58:41.999808",
        "meta_mean_motion": 14.43076298,
        "meta_eccentricity": 0.00432481,
        "meta_inclination": 98.7395,
        "meta_ra_of_asc_node": 91.8872,
        "meta_arg_of_pericenter": 197.2415,
        "meta_mean_anomaly": 190.0813,
        "meta_ephemeris_type": 0,
        "meta_classification_type": "U",
        "meta_norad_cat_id": 29912,
        "meta_element_set_no": 999,
        "meta_rev_at_epoch": 98147,
        "meta_bstar": 0.0014255897,
        "meta_mean_motion_dot": 4.791e-05,
        "meta_mean_motion_ddot": 0,
        "tle_line1": "1 29912U 99025HJ  25354.24909722  .00004791  00000+0  14256-2 0  9992",
        "tle_line2": "2 29912  98.7395  91.8872 0043248 197.2415 190.0813 14.43076298981476"
      },
      "geometry": {
        "type": "Point",
        "coordinates": [
          -45.1205128136966,
          77.20169179032628
        ]
      }
    },
    {
      "type": "Feature",
      "properties": {
        "norad_id": 29913,
        "name": "FENGYUN 1C DEB",
        "group": "fengyun-1c-debris",
        "lat": -75.68851723234206,
        "lon": 30.57021253522166,
        "alt_km": 837.6574740727592,
        "timestamp": "2025-12-20T14:38:02.242114+00:00",
        "meta_object_name": "FENGYUN 1C DEB",
        "meta_object_id": "1999-025HK",
        "meta_epoch": "2025-12-19T10:45:26.123328",
        "meta_mean_motion": 14.07390375,
        "meta_eccentricity": 0.0061818,
        "meta_inclination": 98.7876,
        "meta_ra_of_asc_node": 352.1153,
        "meta_arg_of_pericenter": 252.3357,
        "meta_mean_anomaly": 266.9063,
        "meta_ephemeris_type": 0,
        "meta_classification_type": "U",
        "meta_norad_cat_id": 29913,
        "meta_element_set_no": 999,
        "meta_rev_at_epoch": 97059,
        "meta_bstar": 0.00029354,
        "meta_mean_motion_dot": 4.59e-06,
        "meta_mean_motion_ddot": 0,
        "tle_line1": "1 29913U 99025HK  25353.44821902  .00000459  00000+0  29354-3 0  9990",
        "tle_line2": "2 29913  98.7876 352.1153 0061818 252.3357 266.9063 14.07390375970593"
      },
      "geometry": {
        "type": "Point",
        "coordinates": [
          30.57021253522166,
          -75.68851723234206
        ]
      }
    }
  ]
}